GLOBALSTAR M068         
1 32266U 07048D   25338.64163169 -.00000085  00000+0  10675-3 0  9990
2 32266  51.9866 142.6484 0001948 124.2065 316.3277 12.62834423839090
GLOBALSTAR M079         
1 37188U 10054A   25338.44529242 -.00000088  00000+0  87381-4 0  9997
2 37188  52.0058 341.4937 0000226   4.2233 160.4912 12.62268889697955
GLOBALSTAR M074         
1 37189U 10054B   25338.47181522 -.00000092  00000+0  68165-4 0  9990
2 37189  52.0035 340.7088 0000418  58.5268 106.6190 12.62263834698566
GLOBALSTAR M076         
1 37190U 10054C   25338.41947500 -.00000093  00000+0  58728-4 0  9997
2 37190  52.0048 341.0562 0000427  34.1343 131.7845 12.62267719698277
GLOBALSTAR M077         
1 37191U 10054D   25336.30079544 -.00000079  00000+0  35254-4 0  9991
2 37191  52.0116 319.4726 0017672 313.8474 152.6760 11.82670137698122
GLOBALSTAR M075         
1 37192U 10054E   25338.39850869 -.00000088  00000+0  90221-4 0  9995
2 37192  51.9967  23.2796 0000395 114.2516 257.8764 12.62270081697344
GLOBALSTAR M073         
1 37193U 10054F   25338.67158597 -.00000095  00000+0  50716-4 0  9999
2 37193  52.0071 296.4012 0000554  29.0295 142.5794 12.62264802699363
GLOBALSTAR M083         
1 37739U 11033A   25338.65214750 -.00000068  00000+0  19970-3 0  9991
2 37739  51.9853 244.9553 0000729  52.3380 332.8439 12.62265171668389
GLOBALSTAR M088         
1 37740U 11033B   25338.63713073 -.00000096  00000+0  41218-4 0  9995
2 37740  52.0187 150.9560 0001122  99.9938 336.0543 12.62270910663925
GLOBALSTAR M091         
1 37741U 11033C   25338.63665008 -.00000108  00000+0 -26266-4 0  9991
2 37741  51.9987 114.2106 0000857 119.9878 253.3234 12.62262345664710
GLOBALSTAR M085         
1 37742U 11033D   25338.56389655 -.00000102  00000+0  11482-4 0  9992
2 37742  52.0142  65.5536 0000559 143.0582 320.1298 12.62267040665216
GLOBALSTAR M081         
1 37743U 11033E   25338.67898005 -.00000112  00000+0 -44467-4 0  9990
2 37743  51.9967  67.8593 0000489 120.6813  26.1875 12.62270574665375
GLOBALSTAR M089         
1 37744U 11033F   25338.64485492 -.00000082  00000+0  12128-3 0  9993
2 37744  51.9952  22.1597 0000560  83.7728  88.7683 12.62261807666216
GLOBALSTAR M084         
1 38040U 11080A   25338.49975602 -.00000064  00000+0  22259-3 0  9991
2 38040  52.0006 249.9819 0001077  57.5009 114.1665 12.62266213644170
GLOBALSTAR M080         
1 38041U 11080B   25338.55216314 -.00000071  00000+0  18495-3 0  9992
2 38041  52.0059 251.4728 0000640  98.7454  81.2243 12.62271809644300
GLOBALSTAR M082         
1 38042U 11080C   25338.69430764 -.00000056  00000+0  26479-3 0  9999
2 38042  52.0058 206.5209 0000823  94.8197 300.9766 12.62265825645032
GLOBALSTAR M092         
1 38043U 11080D   25338.61860134 -.00000096  00000+0  43542-4 0  9995
2 38043  52.0098 297.1369 0000541  56.5477 114.5896 12.62267913643472
GLOBALSTAR M090         
1 38044U 11080E   25338.64154328 -.00000055  00000+0  27078-3 0  9990
2 38044  52.0103 200.5750 0000851  75.9902 318.8721 12.62265113645146
GLOBALSTAR M086         
1 38045U 11080F   25338.66590024 -.00000067  00000+0  20462-3 0  9993
2 38045  51.9878 200.7472 0001229  22.4506  12.2950 12.62280630645098
GLOBALSTAR M097         
1 39072U 13005A   25338.68628539 -.00000118  00000+0 -79106-4 0  9996
2 39072  52.0033 115.4121 0000724 104.2778 255.8169 12.62267879592342
GLOBALSTAR M093         
1 39073U 13005B   25338.66021777 -.00000117  00000+0 -75609-4 0  9999
2 39073  52.0097 108.7653 0000518 115.5459 244.5462 12.62270917592292
GLOBALSTAR M094         
1 39074U 13005C   25338.42248029 -.00000089  00000+0  80286-4 0  9999
2 39074  51.9981  23.8002 0000157 146.3560 213.7317 12.62265066593873
GLOBALSTAR M096         
1 39075U 13005D   25338.51474534 -.00000102  00000+0  82513-5 0  9994
2 39075  52.0084  72.1650 0000503 137.9100 222.1806 12.62269128592809
GLOBALSTAR M078         
1 39076U 13005E   25338.64716223 -.00000095  00000+0  49859-4 0  9999
2 39076  51.9841 156.0440 0001137 144.6046 215.4896 12.62272393591447
GLOBALSTAR M095         
1 39077U 13005F   25338.67335132 -.00000094  00000+0  52929-4 0  9990
2 39077  52.0052 153.2913 0000763 117.9511 242.1433 12.62267224591308
GLOBALSTAR M087         
1 52888U 22064A   25338.44878653 -.00000094  00000+0  54159-4 0  9992
2 52888  52.0010 295.3239 0000337  37.4687 322.6203 12.62260851166545
